BEIDOU-2 IGSO-1 (C06)   
1 36828U 10036A   26195.91730701 -.00000122  00000+0  00000+0 0  9992
2 36828  54.3063 162.7092 0059022 225.2803 342.1032  1.00264343 58378
BEIDOU-2 G4 (C04)       
1 37210U 10057A   26195.80464421 -.00000124  00000+0  00000+0 0  9994
2 37210   3.7129  68.7668 0005743 184.4843 129.0009  1.00269752 57565
BEIDOU-2 IGSO-2 (C07)   
1 37256U 10068A   26195.65157983 -.00000189  00000+0  00000+0 0  9992
2 37256  47.4976 271.4891 0056995 213.8254 150.0718  1.00273103 57071
BEIDOU-2 IGSO-3 (C08)   
1 37384U 11013A   26195.95750385 -.00000165  00000+0  00000+0 0  9997
2 37384  62.4464  39.8890 0035472 183.4321 160.6904  1.00260569 55930
BEIDOU-2 IGSO-4 (C09)   
1 37763U 11038A   26193.91136250 -.00000017  00000+0  00000+0 0  9994
2 37763  54.6038 165.4445 0160342 231.4539 316.2369  1.00279714 54905
BEIDOU-2 IGSO-5 (C10)   
1 37948U 11073A   26183.72937883 -.00000128  00000+0  00000+0 0  9990
2 37948  47.6496 271.3544 0114527 222.0502 141.5350  1.00270596 53296
BEIDOU-2 G5 (C05)       
1 38091U 12008A   26196.17266953  .00000046  00000+0  00000+0 0  9993
2 38091   3.6409  69.5133 0007309 268.5041  75.8268  1.00270198 52648
BEIDOU-2 M3 (C11)       
1 38250U 12018A   26194.49964644 -.00000069  00000+0  00000+0 0  9992
2 38250  55.7337 303.9888 0020987 272.3154  87.4648  1.86229839 96436
BEIDOU-2 M4 (C12)       
1 38251U 12018B   26194.96895145 -.00000068  00000+0  00000+0 0  9993
2 38251  55.6326 303.1845 0012305 272.1181  87.7646  1.86229381 96446
BEIDOU-2 M6 (C14)       
1 38775U 12050B   26193.06769869 -.00000042  00000+0  00000+0 0  9995
2 38775  56.5659  62.0719 0012986   1.2706 358.8013  1.86230839 93779
BEIDOU-2 G6 (C02)       
1 38953U 12059A   26196.07470796 -.00000188  00000+0  00000+0 0  9995
2 38953   4.4894  73.2146 0008740 327.1436   3.4461  1.00273781 50188
BEIDOU-3S IGSO-1S (C31) 
1 40549U 15019A   26183.80025122 -.00000190  00000+0  00000+0 0  9997
2 40549  49.1798 295.2769 0076860 219.1125 144.2493  1.00680073 41232
BEIDOU-3S M2S (C58)     
1 40748U 15037A   26195.70782088 -.00000067  00000+0  00000+0 0  9994
2 40748  54.8448 301.0992 0009417 256.9045 103.0206  1.86232026 74636
BEIDOU-3S M1S (C57)     
1 40749U 15037B   26195.37496959 -.00000066  00000+0  00000+0 0  9996
2 40749  54.8414 301.0972 0002771  63.4043 296.6528  1.86254768 74636
BEIDOU-3S IGSO-2S (C56) 
1 40938U 15053A   26196.14773466 -.00000091  00000+0  00000+0 0  9999
2 40938  49.1789 258.4479 0066249 193.1115 347.9978  1.00252631 39639
BEIDOU-2 IGSO-6 (C13)   
1 41434U 16021A   26177.11016981 -.00000145  00000+0  00000+0 0  9995
2 41434  60.2385  37.9495 0057558 231.0163 137.2672  1.00258926 37578
BEIDOU-2 G7 (C03)       
1 41586U 16037A   26196.07421034 -.00000364  00000+0  00000+0 0  9998
2 41586   1.7865  69.4894 0005907 359.5962   1.0986  1.00273474  7169
BEIDOU-3 M1 (C19)       
1 43001U 17069A   26194.98087216 -.00000038  00000+0  00000+0 0  9994
2 43001  56.7152  62.2026 0009261 328.5665  31.4523  1.86230799 59105
BEIDOU-3 M2 (C20)       
1 43002U 17069B   26195.99359285 -.00000040  00000+0  00000+0 0  9998
2 43002  56.7152  62.2056 0008576 355.1932   4.8736  1.86230637 59112
BEIDOU-3 M7 (C27)       
1 43107U 18003A   26194.12464471 -.00000066  00000+0  00000+0 0  9999
2 43107  54.3034 301.4109 0004425  99.0541 261.0198  1.86228081 57833
BEIDOU-3 M8 (C28)       
1 43108U 18003B   26195.14292031 -.00000067  00000+0  00000+0 0  9995
2 43108  54.2952 301.3566 0003054 257.2300 102.7635  1.86230956 57860
BEIDOU-3 M4 (C22)       
1 43207U 18018A   26195.04916462 -.00000038  00000+0  00000+0 0  9999
2 43207  56.6746  62.2635 0007445  28.6093 331.5057  1.86230755 57243
BEIDOU-3 M3 (C21)       
1 43208U 18018B   26195.11566176 -.00000038  00000+0  00000+0 0  9991
2 43208  56.6739  62.2646 0007581 347.4749  12.5805  1.86230766 57248
BEIDOU-3 M9 (C29)       
1 43245U 18029A   26195.33364073 -.00000063  00000+0  00000+0 0  9998
2 43245  54.1675 298.9986 0001236 187.3559 172.6749  1.86227870 56401
BEIDOU-3 M10 (C30)      
1 43246U 18029B   26195.26785764 -.00000063  00000+0  00000+0 0  9995
2 43246  54.1653 299.0279 0003254  37.5174 322.5374  1.86229100 56381
BEIDOU-2 IGSO-7 (C16)   
1 43539U 18057A   26182.89122331 -.00000033  00000+0  00000+0 0  9998
2 43539  55.1981 162.9292 0104946 237.8611 308.6338  1.00246939 29273
BEIDOU-3 M5 (C23)       
1 43581U 18062A   26196.02870588  .00000041  00000+0  00000+0 0  9993
2 43581  54.0864 181.3577 0005688 292.4069  67.5068  1.86228782 54152
BEIDOU-3 M6 (C24)       
1 43582U 18062B   26195.35535407  .00000047  00000+0  00000+0 0  9993
2 43582  54.0858 181.3698 0005232   9.8784 350.1097  1.86227860 54147
BEIDOU-3 M12 (C26)      
1 43602U 18067A   26195.29379083  .00000046  00000+0  00000+0 0  9999
2 43602  54.1815 180.1212 0007905  30.2699 329.7517  1.86227611 53620
BEIDOU-3 M11 (C25)      
1 43603U 18067B   26195.96588637  .00000041  00000+0  00000+0 0  9996
2 43603  54.1789 180.0620 0004617  13.0356 346.9483  1.86227040 53662
BEIDOU-3 M13 (C32)      
1 43622U 18072A   26194.84670723 -.00000039  00000+0  00000+0 0  9995
2 43622  56.6475  61.7808 0006235 333.7731  26.2691  1.86231187 53152
BEIDOU-3 M14 (C33)      
1 43623U 18072B   26195.24909091 -.00000039  00000+0  00000+0 0  9994
2 43623  56.6499  61.7618 0005535  10.9720 349.1146  1.86231229 53151
BEIDOU-3 M16 (C35)      
1 43647U 18078A   26194.33012617 -.00000062  00000+0  00000+0 0  9990
2 43647  54.0645 299.0691 0006650  39.9150 320.1624  1.86232180 52646
BEIDOU-3 M15 (C34)      
1 43648U 18078B   26194.99634333 -.00000063  00000+0  00000+0 0  9999
2 43648  54.0596 299.0458 0003535  57.7784 302.2870  1.86232312 52677
BEIDOU-3 G1 (C59)       
1 43683U 18085A   26196.16108138 -.00000120  00000+0  00000+0 0  9990
2 43683   2.9363  96.6113 0008007 356.5341  57.8180  1.00272490 28348
BEIDOU-3 M17 (C36)      
1 43706U 18093A   26196.01705462  .00000041  00000+0  00000+0 0  9993
2 43706  54.1700 181.3521 0010121 294.3238 281.3970  1.86228287 52052
BEIDOU-3 M18 (C37)      
1 43707U 18093B   26196.09575219  .00000041  00000+0  00000+0 0  9997
2 43707  54.1708 181.3419 0008074 322.6097  37.3076  1.86226638 52053
BEIDOU-3 IGSO-1 (C38)   
1 44204U 19023A   26194.49395858 -.00000204  00000+0  00000+0 0  9997
2 44204  58.7323  37.3789 0025734 224.1077 326.8166  1.00283496  7478
BEIDOU-2 G8 (C01)       
1 44231U 19027A   26196.22922434 -.00000258  00000+0  00000+0 0  9999
2 44231   1.7265  74.4846 0009699 282.0905 163.5493  1.00271680 26362
BEIDOU-3 IGSO-2 (C39)   
1 44337U 19035A   26195.79641084 -.00000139  00000+0  00000+0 0  9993
2 44337  55.2501 158.6203 0039536 216.6664 322.6164  1.00257889 25947
BEIDOU-3 M24 (C46)      
1 44542U 19061A   26196.16401773  .00000041  00000+0  00000+0 0  9992
2 44542  54.3974 181.7843 0008628 359.5226   0.4506  1.86229144 46317
BEIDOU-3 M23 (C45)      
1 44543U 19061B   26196.02844935  .00000042  00000+0  00000+0 0  9990
2 44543  54.3957 181.7573 0005920 339.9531 200.5494  1.86227542 46311
BEIDOU-3 M22 (C44)      
1 44793U 19078A   26194.39343167 -.00000062  00000+0  00000+0 0  9997
2 44793  53.9106 298.9058 0005750  50.3045 309.7753  1.86227300 45134
BEIDOU-3 M21 (C43)      
1 44794U 19078B   26196.14417837 -.00000066  00000+0  00000+0 0  9993
2 44794  53.8818 298.8044 0003444  48.1201 311.9449  1.86227652 45176
BEIDOU-3 M19 (C41)      
1 44864U 19090A   26196.14526441 -.00000041  00000+0  00000+0 0  9990
2 44864  56.5835  61.8670 0016848 297.6426 260.6959  1.86231023 44754
BEIDOU-3 M20 (C42)      
1 44865U 19090B   26195.48425657 -.00000039  00000+0  00000+0 0  9991
2 44865  56.5841  61.9230 0014393 312.7381 252.0119  1.86231148 44725
BEIDOU-3 G2 (C60)       
1 45344U 20017A   26196.14522132 -.00000150  00000+0  00000+0 0  9999
2 45344   2.9191  47.7231 0001941  61.7447 315.8275  1.00268994 23546
BEIDOU-3 G3 (C61)       
1 45807U 20040A   26196.22559737 -.00000365  00000+0  00000+0 0  9997
2 45807   2.5135  67.4753 0002228 307.6935 109.5824  1.00276514 22358
BEIDOU-3 G4 (C62)       
1 56564U 23066A   26196.22835767 -.00000290  00000+0  00000+0 0  9997
2 56564   0.4606 338.9375 0004890 187.1848 349.2274  1.00272447 11673
BEIDOU-3 M28 (C50)      
1 58654U 23207A   26195.14722610 -.00000041  00000+0  00000+0 0  9992
2 58654  55.7766  61.3937 0002448   4.5208 355.5548  1.86229649 17349
BEIDOU-3 M26 (C48)      
1 58655U 23207B   26194.94472031 -.00000041  00000+0  00000+0 0  9999
2 58655  55.7789  61.3870 0002015 324.6571  35.4025  1.86229652 17326
BEIDOU-3 M25 (C47)      
1 61186U 24168B   26195.93688730 -.00000069  00000+0  00000+0 0  9994
2 61186  54.4467 301.2775 0003308 291.6929 131.0149  1.86229838 12303
BEIDOU-3 M27 (C49)      
1 61187U 24168C   26196.19247338 -.00000070  00000+0  00000+0 0  9991
2 61187  54.4419 301.2513 0000901  47.6760 321.4230  1.86229910  9784
